[{"OBJECT_NAME":"STARLINK-30329","OBJECT_ID":"2023-122D","EPOCH":"2026-03-09T10:09:40.039776","MEAN_MOTION":15.2674653,"ECCENTRICITY":0.00014457,"INCLINATION":43.0009,"RA_OF_ASC_NODE":94.2279,"ARG_OF_PERICENTER":260.6424,"MEAN_ANOMALY":99.4264,"EPHEMERIS_TYPE":0,"CLASSIFICATION_TYPE":"U","NORAD_CAT_ID":57635,"ELEMENT_SET_NO":999,"REV_AT_EPOCH":14216,"BSTAR":6.0950903e-5,"MEAN_MOTION_DOT":1.376e-5,"MEAN_MOTION_DDOT":0},{"OBJECT_NAME":"DMSP 5D-2 F13 DEB","OBJECT_ID":"1995-015HL","EPOCH":"2026-02-09T02:06:19.247328","MEAN_MOTION":15.12822218,"ECCENTRICITY":0.00117732,"INCLINATION":98.8603,"RA_OF_ASC_NODE":96.8879,"ARG_OF_PERICENTER":223.037,"MEAN_ANOMALY":136.9936,"EPHEMERIS_TYPE":0,"CLASSIFICATION_TYPE":"U","NORAD_CAT_ID":42294,"ELEMENT_SET_NO":999,"REV_AT_EPOCH":55633,"BSTAR":0.010466292,"MEAN_MOTION_DOT":0.00188804,"MEAN_MOTION_DDOT":0}]
